CCSDS_OMM_VERS = 2.0
CREATION_DATE  = 
ORIGINATOR     = 

OBJECT_NAME    = SL-3 R/B
OBJECT_ID      = 1988-032B
CENTER_NAME    = EARTH
REF_FRAME      = TEME
TIME_SYSTEM    = UTC
MEAN_ELEMENT_THEORY = SGP/SGP4

EPOCH          = 2026-03-27T20:04:01.377120
MEAN_MOTION    = 15.20102569
ECCENTRICITY   = .0026232
INCLINATION    = 97.5211
RA_OF_ASC_NODE = 70.0282
ARG_OF_PERICENTER = 166.6826
MEAN_ANOMALY   = 193.5107

EPHEMERIS_TYPE = 0
CLASSIFICATION_TYPE = U
NORAD_CAT_ID   = 19046
ELEMENT_SET_NO = 999
REV_AT_EPOCH   = 5486
BSTAR          = .24113E-3
MEAN_MOTION_DOT = .5185E-4
MEAN_MOTION_DDOT = 0

CCSDS_OMM_VERS = 2.0
CREATION_DATE  = 
ORIGINATOR     = 

OBJECT_NAME    = SL-16 R/B
OBJECT_ID      = 1988-039B
CENTER_NAME    = EARTH
REF_FRAME      = TEME
TIME_SYSTEM    = UTC
MEAN_ELEMENT_THEORY = SGP/SGP4

EPOCH          = 2026-03-27T05:50:50.820864
MEAN_MOTION    = 14.19618470
ECCENTRICITY   = .0023594
INCLINATION    = 71.0164
RA_OF_ASC_NODE = 31.4280
ARG_OF_PERICENTER = 309.1689
MEAN_ANOMALY   = 50.7339

EPHEMERIS_TYPE = 0
CLASSIFICATION_TYPE = U
NORAD_CAT_ID   = 19120
ELEMENT_SET_NO = 999
REV_AT_EPOCH   = 96087
BSTAR          = .95393E-4
MEAN_MOTION_DOT = .154E-5
MEAN_MOTION_DDOT = 0

CCSDS_OMM_VERS = 2.0
CREATION_DATE  = 
ORIGINATOR     = 

OBJECT_NAME    = COSMOS 1953
OBJECT_ID      = 1988-050A
CENTER_NAME    = EARTH
REF_FRAME      = TEME
TIME_SYSTEM    = UTC
MEAN_ELEMENT_THEORY = SGP/SGP4

EPOCH          = 2026-03-27T13:28:12.226368
MEAN_MOTION    = 15.28796422
ECCENTRICITY   = .001243
INCLINATION    = 82.5082
RA_OF_ASC_NODE = 140.2702
ARG_OF_PERICENTER = 66.9057
MEAN_ANOMALY   = 293.3491

EPHEMERIS_TYPE = 0
CLASSIFICATION_TYPE = U
NORAD_CAT_ID   = 19210
ELEMENT_SET_NO = 999
REV_AT_EPOCH   = 4051
BSTAR          = .2323E-3
MEAN_MOTION_DOT = .6547E-4
MEAN_MOTION_DDOT = 0

CCSDS_OMM_VERS = 2.0
CREATION_DATE  = 
ORIGINATOR     = 

OBJECT_NAME    = SL-8 R/B
OBJECT_ID      = 1988-053B
CENTER_NAME    = EARTH
REF_FRAME      = TEME
TIME_SYSTEM    = UTC
MEAN_ELEMENT_THEORY = SGP/SGP4

EPOCH          = 2026-03-27T11:10:23.762784
MEAN_MOTION    = 14.38927931
ECCENTRICITY   = .0021488
INCLINATION    = 74.0454
RA_OF_ASC_NODE = 79.6966
ARG_OF_PERICENTER = 256.6468
MEAN_ANOMALY   = 220.2542

EPHEMERIS_TYPE = 0
CLASSIFICATION_TYPE = U
NORAD_CAT_ID   = 19257
ELEMENT_SET_NO = 999
REV_AT_EPOCH   = 97915
BSTAR          = .11726E-3
MEAN_MOTION_DOT = .336E-5
MEAN_MOTION_DDOT = 0

CCSDS_OMM_VERS = 2.0
CREATION_DATE  = 
ORIGINATOR     = 

OBJECT_NAME    = COSMOS 1975
OBJECT_ID      = 1988-093A
CENTER_NAME    = EARTH
REF_FRAME      = TEME
TIME_SYSTEM    = UTC
MEAN_ELEMENT_THEORY = SGP/SGP4

EPOCH          = 2026-03-27T12:50:34.247040
MEAN_MOTION    = 15.28303569
ECCENTRICITY   = .0013375
INCLINATION    = 82.5165
RA_OF_ASC_NODE = 99.7641
ARG_OF_PERICENTER = 106.3111
MEAN_ANOMALY   = 253.9601

EPHEMERIS_TYPE = 0
CLASSIFICATION_TYPE = U
NORAD_CAT_ID   = 19573
ELEMENT_SET_NO = 999
REV_AT_EPOCH   = 2213
BSTAR          = .22496E-3
MEAN_MOTION_DOT = .6249E-4
MEAN_MOTION_DDOT = 0

CCSDS_OMM_VERS = 2.0
CREATION_DATE  = 
ORIGINATOR     = 

OBJECT_NAME    = SL-14 R/B
OBJECT_ID      = 1988-093B
CENTER_NAME    = EARTH
REF_FRAME      = TEME
TIME_SYSTEM    = UTC
MEAN_ELEMENT_THEORY = SGP/SGP4

EPOCH          = 2026-03-27T20:19:55.775712
MEAN_MOTION    = 14.85677737
ECCENTRICITY   = .0020197
INCLINATION    = 82.5337
RA_OF_ASC_NODE = 25.0012
ARG_OF_PERICENTER = 342.4384
MEAN_ANOMALY   = 78.7912

EPHEMERIS_TYPE = 0
CLASSIFICATION_TYPE = U
NORAD_CAT_ID   = 19574
ELEMENT_SET_NO = 999
REV_AT_EPOCH   = 371
BSTAR          = .645E-4
MEAN_MOTION_DOT = .585E-5
MEAN_MOTION_DDOT = 0

CCSDS_OMM_VERS = 2.0
CREATION_DATE  = 
ORIGINATOR     = 

OBJECT_NAME    = SL-16 R/B
OBJECT_ID      = 1988-102B
CENTER_NAME    = EARTH
REF_FRAME      = TEME
TIME_SYSTEM    = UTC
MEAN_ELEMENT_THEORY = SGP/SGP4

EPOCH          = 2026-03-27T18:36:45.449856
MEAN_MOTION    = 14.16153685
ECCENTRICITY   = .0015069
INCLINATION    = 70.9971
RA_OF_ASC_NODE = 113.4429
ARG_OF_PERICENTER = 334.4229
MEAN_ANOMALY   = 25.6147

EPHEMERIS_TYPE = 0
CLASSIFICATION_TYPE = U
NORAD_CAT_ID   = 19650
ELEMENT_SET_NO = 999
REV_AT_EPOCH   = 92945
BSTAR          = -.71179E-4
MEAN_MOTION_DOT = -.189E-5
MEAN_MOTION_DDOT = 0

CCSDS_OMM_VERS = 2.0
CREATION_DATE  = 
ORIGINATOR     = 

OBJECT_NAME    = INTERCOSMOS 24
OBJECT_ID      = 1989-080A
CENTER_NAME    = EARTH
REF_FRAME      = TEME
TIME_SYSTEM    = UTC
MEAN_ELEMENT_THEORY = SGP/SGP4

EPOCH          = 2026-03-27T12:22:45.840576
MEAN_MOTION    = 12.59580721
ECCENTRICITY   = .1186831
INCLINATION    = 82.6011
RA_OF_ASC_NODE = 92.7922
ARG_OF_PERICENTER = 251.4058
MEAN_ANOMALY   = 95.4735

EPHEMERIS_TYPE = 0
CLASSIFICATION_TYPE = U
NORAD_CAT_ID   = 20261
ELEMENT_SET_NO = 999
REV_AT_EPOCH   = 66904
BSTAR          = .14984E-3
MEAN_MOTION_DOT = .506E-5
MEAN_MOTION_DDOT = 0

CCSDS_OMM_VERS = 2.0
CREATION_DATE  = 
ORIGINATOR     = 

OBJECT_NAME    = SL-14 R/B
OBJECT_ID      = 1989-080C
CENTER_NAME    = EARTH
REF_FRAME      = TEME
TIME_SYSTEM    = UTC
MEAN_ELEMENT_THEORY = SGP/SGP4

EPOCH          = 2026-03-27T17:16:52.696704
MEAN_MOTION    = 12.50510861
ECCENTRICITY   = .1230886
INCLINATION    = 82.5957
RA_OF_ASC_NODE = 161.6165
ARG_OF_PERICENTER = 143.5569
MEAN_ANOMALY   = 225.6079

EPHEMERIS_TYPE = 0
CLASSIFICATION_TYPE = U
NORAD_CAT_ID   = 20262
ELEMENT_SET_NO = 999
REV_AT_EPOCH   = 66240
BSTAR          = .94998E-4
MEAN_MOTION_DOT = .343E-5
MEAN_MOTION_DDOT = 0

CCSDS_OMM_VERS = 2.0
CREATION_DATE  = 
ORIGINATOR     = 

OBJECT_NAME    = DELTA 1 R/B
OBJECT_ID      = 1989-089B
CENTER_NAME    = EARTH
REF_FRAME      = TEME
TIME_SYSTEM    = UTC
MEAN_ELEMENT_THEORY = SGP/SGP4

EPOCH          = 2026-03-27T13:18:24.283872
MEAN_MOTION    = 14.50677158
ECCENTRICITY   = .0070565
INCLINATION    = 97.0693
RA_OF_ASC_NODE = 291.1497
ARG_OF_PERICENTER = 66.6602
MEAN_ANOMALY   = 294.2000

EPHEMERIS_TYPE = 0
CLASSIFICATION_TYPE = U
NORAD_CAT_ID   = 20323
ELEMENT_SET_NO = 999
REV_AT_EPOCH   = 89832
BSTAR          = .83782E-4
MEAN_MOTION_DOT = .305E-5
MEAN_MOTION_DDOT = 0

CCSDS_OMM_VERS = 2.0
CREATION_DATE  = 
ORIGINATOR     = 

OBJECT_NAME    = ARIANE 40 R/B
OBJECT_ID      = 1990-005H
CENTER_NAME    = EARTH
REF_FRAME      = TEME
TIME_SYSTEM    = UTC
MEAN_ELEMENT_THEORY = SGP/SGP4

EPOCH          = 2026-03-27T17:48:43.182144
MEAN_MOTION    = 14.39881884
ECCENTRICITY   = .0010929
INCLINATION    = 98.3045
RA_OF_ASC_NODE = 146.8624
ARG_OF_PERICENTER = 145.6749
MEAN_ANOMALY   = 214.5148

EPHEMERIS_TYPE = 0
CLASSIFICATION_TYPE = U
NORAD_CAT_ID   = 20443
ELEMENT_SET_NO = 999
REV_AT_EPOCH   = 89540
BSTAR          = .89344E-4
MEAN_MOTION_DOT = .239E-5
MEAN_MOTION_DDOT = 0

CCSDS_OMM_VERS = 2.0
CREATION_DATE  = 
ORIGINATOR     = 

OBJECT_NAME    = DELTA 2 R/B(1)
OBJECT_ID      = 1990-008B
CENTER_NAME    = EARTH
REF_FRAME      = TEME
TIME_SYSTEM    = UTC
MEAN_ELEMENT_THEORY = SGP/SGP4

EPOCH          = 2026-03-27T00:09:57.970944
MEAN_MOTION    = 15.58226849
ECCENTRICITY   = .00784044
INCLINATION    = 35.6038
RA_OF_ASC_NODE = 61.0117
ARG_OF_PERICENTER = 60.4502
MEAN_ANOMALY   = 300.4023

EPHEMERIS_TYPE = 0
CLASSIFICATION_TYPE = U
NORAD_CAT_ID   = 20453
ELEMENT_SET_NO = 999
REV_AT_EPOCH   = 92883
BSTAR          = .81030003E-3
MEAN_MOTION_DOT = .73879E-3
MEAN_MOTION_DDOT = 0

